[{"OBJECT_NAME":"ONEWEB-0720","OBJECT_ID":"2023-029AR","EPOCH":"2026-05-30T00:04:45.661728","MEAN_MOTION":13.19726453,"ECCENTRICITY":0.0001501,"INCLINATION":87.9152,"RA_OF_ASC_NODE":308.6022,"ARG_OF_PERICENTER":90.9741,"MEAN_ANOMALY":269.1563,"EPHEMERIS_TYPE":0,"CLASSIFICATION_TYPE":"U","NORAD_CAT_ID":55835,"ELEMENT_SET_NO":999,"REV_AT_EPOCH":15644,"BSTAR":9.8261e-05,"MEAN_MOTION_DOT":5.2e-07,"MEAN_MOTION_DDOT":0.0},{"OBJECT_NAME":"ONEWEB-0537","OBJECT_ID":"2023-043A","EPOCH":"2026-05-30T04:23:58.437600","MEAN_MOTION":13.1659319,"ECCENTRICITY":0.0002152,"INCLINATION":87.9105,"RA_OF_ASC_NODE":232.346,"ARG_OF_PERICENTER":104.6034,"MEAN_ANOMALY":255.5336,"EPHEMERIS_TYPE":0,"CLASSIFICATION_TYPE":"U","NORAD_CAT_ID":56046,"ELEMENT_SET_NO":999,"REV_AT_EPOCH":15659,"BSTAR":-9.901e-05,"MEAN_MOTION_DOT":-2.5e-07,"MEAN_MOTION_DDOT":0.0},{"OBJECT_NAME":"ONEWEB-0538","OBJECT_ID":"2023-043B","EPOCH":"2026-05-29T17:18:14.666112","MEAN_MOTION":13.16593698,"ECCENTRICITY":0.0001905,"INCLINATION":87.9107,"RA_OF_ASC_NODE":232.44,"ARG_OF_PERICENTER":106.9693,"MEAN_ANOMALY":253.1647,"EPHEMERIS_TYPE":0,"CLASSIFICATION_TYPE":"U","NORAD_CAT_ID":56047,"ELEMENT_SET_NO":999,"REV_AT_EPOCH":15654,"BSTAR":-0.00017113,"MEAN_MOTION_DOT":-5.3e-07,"MEAN_MOTION_DDOT":0.0},{"OBJECT_NAME":"ONEWEB-0546","OBJECT_ID":"2023-043C","EPOCH":"2026-05-30T03:56:37.364640","MEAN_MOTION":13.16593976,"ECCENTRICITY":0.0002582,"INCLINATION":87.9108,"RA_OF_ASC_NODE":232.3517,"ARG_OF_PERICENTER":109.6175,"MEAN_ANOMALY":250.5235,"EPHEMERIS_TYPE":0,"CLASSIFICATION_TYPE":"U","NORAD_CAT_ID":56048,"ELEMENT_SET_NO":999,"REV_AT_EPOCH":15659,"BSTAR":6.9132e-05,"MEAN_MOTION_DOT":3.9e-07,"MEAN_MOTION_DDOT":0.0},{"OBJECT_NAME":"ONEWEB-0547","OBJECT_ID":"2023-043D","EPOCH":"2026-05-29T18:40:35.724000","MEAN_MOTION":13.21824246,"ECCENTRICITY":0.0001804,"INCLINATION":87.926,"RA_OF_ASC_NODE":247.6359,"ARG_OF_PERICENTER":101.5564,"MEAN_ANOMALY":258.5773,"EPHEMERIS_TYPE":0,"CLASSIFICATION_TYPE":"U","NORAD_CAT_ID":56049,"ELEMENT_SET_NO":999,"REV_AT_EPOCH":15579,"BSTAR":0.00011287999999999999,"MEAN_MOTION_DOT":6e-07,"MEAN_MOTION_DDOT":0.0},{"OBJECT_NAME":"ONEWEB-0548","OBJECT_ID":"2023-043E","EPOCH":"2026-05-29T17:35:21.024672","MEAN_MOTION":13.16594495,"ECCENTRICITY":0.0002316,"INCLINATION":87.9104,"RA_OF_ASC_NODE":232.4342,"ARG_OF_PERICENTER":90.2021,"MEAN_ANOMALY":269.9375,"EPHEMERIS_TYPE":0,"CLASSIFICATION_TYPE":"U","NORAD_CAT_ID":56050,"ELEMENT_SET_NO":999,"REV_AT_EPOCH":15653,"BSTAR":-2.4182000000000003e-05,"MEAN_MOTION_DOT":4e-08,"MEAN_MOTION_DDOT":0.0},{"OBJECT_NAME":"ONEWEB-0549","OBJECT_ID":"2023-043F","EPOCH":"2026-05-29T18:32:07.497600","MEAN_MOTION":13.21824408,"ECCENTRICITY":0.0001776,"INCLINATION":87.9254,"RA_OF_ASC_NODE":247.6446,"ARG_OF_PERICENTER":109.9008,"MEAN_ANOMALY":250.2317,"EPHEMERIS_TYPE":0,"CLASSIFICATION_TYPE":"U","NORAD_CAT_ID":56051,"ELEMENT_SET_NO":999,"REV_AT_EPOCH":15579,"BSTAR":4.126e-05,"MEAN_MOTION_DOT":3e-07,"MEAN_MOTION_DDOT":0.0},{"OBJECT_NAME":"ONEWEB-0550","OBJECT_ID":"2023-043G","EPOCH":"2026-05-30T05:06:46.946304","MEAN_MOTION":13.21824861,"ECCENTRICITY":0.0002058,"INCLINATION":87.9255,"RA_OF_ASC_NODE":247.5538,"ARG_OF_PERICENTER":94.0697,"MEAN_ANOMALY":266.0672,"EPHEMERIS_TYPE":0,"CLASSIFICATION_TYPE":"U","NORAD_CAT_ID":56052,"ELEMENT_SET_NO":999,"REV_AT_EPOCH":15585,"BSTAR":0.00017434,"MEAN_MOTION_DOT":8.5e-07,"MEAN_MOTION_DDOT":0.0},{"OBJECT_NAME":"ONEWEB-0551","OBJECT_ID":"2023-043H","EPOCH":"2026-05-29T17:59:04.810272","MEAN_MOTION":13.15548217,"ECCENTRICITY":0.0001612,"INCLINATION":87.8993,"RA_OF_ASC_NODE":262.9,"ARG_OF_PERICENTER":106.2371,"MEAN_ANOMALY":253.8937,"EPHEMERIS_TYPE":0,"CLASSIFICATION_TYPE":"U","NORAD_CAT_ID":56053,"ELEMENT_SET_NO":999,"REV_AT_EPOCH":15397,"BSTAR":0.00019953,"MEAN_MOTION_DOT":8.8e-07,"MEAN_MOTION_DDOT":0.0},{"OBJECT_NAME":"ONEWEB-0552","OBJECT_ID":"2023-043J","EPOCH":"2026-05-30T04:59:31.104096","MEAN_MOTION":13.21827307,"ECCENTRICITY":0.0001844,"INCLINATION":87.9255,"RA_OF_ASC_NODE":247.5611,"ARG_OF_PERICENTER":97.1904,"MEAN_ANOMALY":262.9439,"EPHEMERIS_TYPE":0,"CLASSIFICATION_TYPE":"U","NORAD_CAT_ID":56054,"ELEMENT_SET_NO":999,"REV_AT_EPOCH":15585,"BSTAR":0.00019682,"MEAN_MOTION_DOT":9.4e-07,"MEAN_MOTION_DDOT":0.0},{"OBJECT_NAME":"ONEWEB-0553","OBJECT_ID":"2023-043K","EPOCH":"2026-05-30T04:05:43.943136","MEAN_MOTION":13.16593422,"ECCENTRICITY":0.0002394,"INCLINATION":87.9106,"RA_OF_ASC_NODE":232.351,"ARG_OF_PERICENTER":103.6902,"MEAN_ANOMALY":256.4496,"EPHEMERIS_TYPE":0,"CLASSIFICATION_TYPE":"U","NORAD_CAT_ID":56055,"ELEMENT_SET_NO":999,"REV_AT_EPOCH":15660,"BSTAR":-0.00012994,"MEAN_MOTION_DOT":-3.7e-07,"MEAN_MOTION_DDOT":0.0},{"OBJECT_NAME":"ONEWEB-0554","OBJECT_ID":"2023-043L","EPOCH":"2026-05-30T03:47:30.124320","MEAN_MOTION":13.16594128,"ECCENTRICITY":0.000224,"INCLINATION":87.9105,"RA_OF_ASC_NODE":232.363,"ARG_OF_PERICENTER":94.3482,"MEAN_ANOMALY":265.7905,"EPHEMERIS_TYPE":0,"CLASSIFICATION_TYPE":"U","NORAD_CAT_ID":56056,"ELEMENT_SET_NO":999,"REV_AT_EPOCH":15658,"BSTAR":0.00015874,"MEAN_MOTION_DOT":7.4e-07,"MEAN_MOTION_DDOT":0.0},{"OBJECT_NAME":"ONEWEB-0555","OBJECT_ID":"2023-043M","EPOCH":"2026-05-29T17:45:36.505440","MEAN_MOTION":13.16595448,"ECCENTRICITY":0.0002548,"INCLINATION":87.9106,"RA_OF_ASC_NODE":232.4332,"ARG_OF_PERICENTER":107.1494,"MEAN_ANOMALY":252.9916,"EPHEMERIS_TYPE":0,"CLASSIFICATION_TYPE":"U","NORAD_CAT_ID":56057,"ELEMENT_SET_NO":999,"REV_AT_EPOCH":15653,"BSTAR":-7.214500000000001e-05,"MEAN_MOTION_DOT":-1.5e-07,"MEAN_MOTION_DDOT":0.0},{"OBJECT_NAME":"ONEWEB-0557","OBJECT_ID":"2023-043N","EPOCH":"2026-05-30T05:02:43.448640","MEAN_MOTION":13.1659295,"ECCENTRICITY":0.000321,"INCLINATION":87.9105,"RA_OF_ASC_NODE":232.3505,"ARG_OF_PERICENTER":90.739,"MEAN_ANOMALY":269.4109,"EPHEMERIS_TYPE":0,"CLASSIFICATION_TYPE":"U","NORAD_CAT_ID":56058,"ELEMENT_SET_NO":999,"REV_AT_EPOCH":15659,"BSTAR":0.00030487,"MEAN_MOTION_DOT":1.29e-06,"MEAN_MOTION_DDOT":0.0},{"OBJECT_NAME":"ONEWEB-0558","OBJECT_ID":"2023-043P","EPOCH":"2026-05-30T04:49:49.092096","MEAN_MOTION":13.21826617,"ECCENTRICITY":0.0001863,"INCLINATION":87.9256,"RA_OF_ASC_NODE":247.5568,"ARG_OF_PERICENTER":109.6734,"MEAN_ANOMALY":250.4601,"EPHEMERIS_TYPE":0,"CLASSIFICATION_TYPE":"U","NORAD_CAT_ID":56059,"ELEMENT_SET_NO":999,"REV_AT_EPOCH":15586,"BSTAR":0.00014814,"MEAN_MOTION_DOT":7.4e-07,"MEAN_MOTION_DDOT":0.0},{"OBJECT_NAME":"ONEWEB-0559","OBJECT_ID":"2023-043Q","EPOCH":"2026-05-29T17:38:50.217216","MEAN_MOTION":13.21826294,"ECCENTRICITY":0.0001774,"INCLINATION":87.9259,"RA_OF_ASC_NODE":247.644,"ARG_OF_PERICENTER":101.9632,"MEAN_ANOMALY":258.1701,"EPHEMERIS_TYPE":0,"CLASSIFICATION_TYPE":"U","NORAD_CAT_ID":56060,"ELEMENT_SET_NO":999,"REV_AT_EPOCH":15581,"BSTAR":-5.9038000000000006e-05,"MEAN_MOTION_DOT":-1.1e-07,"MEAN_MOTION_DDOT":0.0}]