ONEWEB-0720             
1 55835U 23029AR  26150.00330627  .00000052  00000+0  98261-4 0  9993
2 55835  87.9152 308.6022 0001501  90.9741 269.1563 13.19726453156441
ONEWEB-0537             
1 56046U 23043A   26150.18331525 -.00000025  00000+0 -99010-4 0  9996
2 56046  87.9105 232.3460 0002152 104.6034 255.5336 13.16593190156594
ONEWEB-0538             
1 56047U 23043B   26149.72100308 -.00000053  00000+0 -17113-3 0  9992
2 56047  87.9107 232.4400 0001905 106.9693 253.1647 13.16593698156540
ONEWEB-0546             
1 56048U 23043C   26150.16432135  .00000039  00000+0  69132-4 0  9990
2 56048  87.9108 232.3517 0002582 109.6175 250.5235 13.16593976156595
ONEWEB-0547             
1 56049U 23043D   26149.77819125  .00000060  00000+0  11288-3 0  9996
2 56049  87.9260 247.6359 0001804 101.5564 258.5773 13.21824246155796
ONEWEB-0548             
1 56050U 23043E   26149.73288223  .00000004  00000+0 -24182-4 0  9990
2 56050  87.9104 232.4342 0002316  90.2021 269.9375 13.16594495156531
ONEWEB-0549             
1 56051U 23043F   26149.77230900  .00000030  00000+0  41260-4 0  9998
2 56051  87.9254 247.6446 0001776 109.9008 250.2317 13.21824408155795
ONEWEB-0550             
1 56052U 23043G   26150.21304336  .00000085  00000+0  17434-3 0  9990
2 56052  87.9255 247.5538 0002058  94.0697 266.0672 13.21824861155859
ONEWEB-0551             
1 56053U 23043H   26149.74936123  .00000088  00000+0  19953-3 0  9993
2 56053  87.8993 262.9000 0001612 106.2371 253.8937 13.15548217153973
ONEWEB-0552             
1 56054U 23043J   26150.20799889  .00000094  00000+0  19682-3 0  9999
2 56054  87.9255 247.5611 0001844  97.1904 262.9439 13.21827307155854
ONEWEB-0553             
1 56055U 23043K   26150.17064749 -.00000037  00000+0 -12994-3 0  9994
2 56055  87.9106 232.3510 0002394 103.6902 256.4496 13.16593422156609
ONEWEB-0554             
1 56056U 23043L   26150.15798755  .00000074  00000+0  15874-3 0  9993
2 56056  87.9105 232.3630 0002240  94.3482 265.7905 13.16594128156580
ONEWEB-0555             
1 56057U 23043M   26149.74000585 -.00000015  00000+0 -72145-4 0  9996
2 56057  87.9106 232.4332 0002548 107.1494 252.9916 13.16595448156530
ONEWEB-0557             
1 56058U 23043N   26150.21022510  .00000129  00000+0  30487-3 0  9999
2 56058  87.9105 232.3505 0003210  90.7390 269.4109 13.16592950156598
ONEWEB-0558             
1 56059U 23043P   26150.20126264  .00000074  00000+0  14814-3 0  9995
2 56059  87.9256 247.5568 0001863 109.6734 250.4601 13.21826617155869
ONEWEB-0559             
1 56060U 23043Q   26149.73530344 -.00000011  00000+0 -59038-4 0  9992
2 56060  87.9259 247.6440 0001774 101.9632 258.1701 13.21826294155819
